[{"id":"AD","two_letter_abbreviation":"AD","three_letter_abbreviation":"AND","full_name_locale":"Andorra","full_name_english":"Andorra","dialling_code":"+376"},{"id":"AE","two_letter_abbreviation":"AE","three_letter_abbreviation":"ARE","full_name_locale":"United Arab Emirates","full_name_english":"United Arab Emirates","dialling_code":"+971"},{"id":"AF","two_letter_abbreviation":"AF","three_letter_abbreviation":"AFG","full_name_locale":"Afghanistan","full_name_english":"Afghanistan","dialling_code":"+93"},{"id":"AG","two_letter_abbreviation":"AG","three_letter_abbreviation":"ATG","full_name_locale":"Antigua & Barbuda","full_name_english":"Antigua & Barbuda","dialling_code":"+1"},{"id":"AI","two_letter_abbreviation":"AI","three_letter_abbreviation":"AIA","full_name_locale":"Anguilla","full_name_english":"Anguilla","dialling_code":"+43"},{"id":"AL","two_letter_abbreviation":"AL","three_letter_abbreviation":"ALB","full_name_locale":"Albania","full_name_english":"Albania","dialling_code":"+355"},{"id":"AM","two_letter_abbreviation":"AM","three_letter_abbreviation":"ARM","full_name_locale":"Armenia","full_name_english":"Armenia","dialling_code":"+374"},{"id":"AN","two_letter_abbreviation":"AN","three_letter_abbreviation":"ANT","full_name_locale":"Netherlands Antilles","full_name_english":"Netherlands Antilles","dialling_code":"+599"},{"id":"AO","two_letter_abbreviation":"AO","three_letter_abbreviation":"AGO","full_name_locale":"Angola","full_name_english":"Angola","dialling_code":"+244"},{"id":"AR","two_letter_abbreviation":"AR","three_letter_abbreviation":"ARG","full_name_locale":"Argentina","full_name_english":"Argentina","dialling_code":"+54"},{"id":"AS","two_letter_abbreviation":"AS","three_letter_abbreviation":"ASM","full_name_locale":"American Samoa","full_name_english":"American Samoa","dialling_code":"+1"},{"id":"AU","two_letter_abbreviation":"AU","three_letter_abbreviation":"AUS","full_name_locale":"Australia","full_name_english":"Australia","dialling_code":"+61"},{"id":"AW","two_letter_abbreviation":"AW","three_letter_abbreviation":"ABW","full_name_locale":"Aruba","full_name_english":"Aruba","dialling_code":"+297"},{"id":"AZ","two_letter_abbreviation":"AZ","three_letter_abbreviation":"AZE","full_name_locale":"Azerbaijan","full_name_english":"Azerbaijan","dialling_code":"+994"},{"id":"BA","two_letter_abbreviation":"BA","three_letter_abbreviation":"BIH","full_name_locale":"Bosnia & Herzegovina","full_name_english":"Bosnia & Herzegovina","dialling_code":"+387"},{"id":"BB","two_letter_abbreviation":"BB","three_letter_abbreviation":"BRB","full_name_locale":"Barbados","full_name_english":"Barbados","dialling_code":"+1"},{"id":"BD","two_letter_abbreviation":"BD","three_letter_abbreviation":"BGD","full_name_locale":"Bangladesh","full_name_english":"Bangladesh","dialling_code":"+880"},{"id":"BE","two_letter_abbreviation":"BE","three_letter_abbreviation":"BEL","full_name_locale":"Belgium","full_name_english":"Belgium","dialling_code":"+32"},{"id":"BF","two_letter_abbreviation":"BF","three_letter_abbreviation":"BFA","full_name_locale":"Burkina Faso","full_name_english":"Burkina Faso","dialling_code":"+226"},{"id":"BG","two_letter_abbreviation":"BG","three_letter_abbreviation":"BGR","full_name_locale":"Bulgaria","full_name_english":"Bulgaria","dialling_code":"+359"},{"id":"BH","two_letter_abbreviation":"BH","three_letter_abbreviation":"BHR","full_name_locale":"Bahrain","full_name_english":"Bahrain","dialling_code":"+973"},{"id":"BI","two_letter_abbreviation":"BI","three_letter_abbreviation":"BDI","full_name_locale":"Burundi","full_name_english":"Burundi","dialling_code":"+257"},{"id":"BJ","two_letter_abbreviation":"BJ","three_letter_abbreviation":"BEN","full_name_locale":"Benin","full_name_english":"Benin","dialling_code":"+229"},{"id":"BL","two_letter_abbreviation":"BL","three_letter_abbreviation":"BLM","full_name_locale":"St. Barthélemy","full_name_english":"St. Barthélemy","dialling_code":"+590"},{"id":"BM","two_letter_abbreviation":"BM","three_letter_abbreviation":"BMU","full_name_locale":"Bermuda","full_name_english":"Bermuda","dialling_code":"+1"},{"id":"BN","two_letter_abbreviation":"BN","three_letter_abbreviation":"BRN","full_name_locale":"Brunei","full_name_english":"Brunei","dialling_code":"+673"},{"id":"BO","two_letter_abbreviation":"BO","three_letter_abbreviation":"BOL","full_name_locale":"Bolivia","full_name_english":"Bolivia","dialling_code":"+591"},{"id":"BR","two_letter_abbreviation":"BR","three_letter_abbreviation":"BRA","full_name_locale":"Brazil","full_name_english":"Brazil","dialling_code":"+55","available_regions":[{"id":"485","code":"AC","name":"Acre"},{"id":"486","code":"AL","name":"Alagoas"},{"id":"487","code":"AP","name":"Amapá"},{"id":"488","code":"AM","name":"Amazonas"},{"id":"489","code":"BA","name":"Bahia"},{"id":"490","code":"CE","name":"Ceará"},{"id":"511","code":"DF","name":"Distrito Federal"},{"id":"491","code":"ES","name":"Espírito Santo"},{"id":"492","code":"GO","name":"Goiás"},{"id":"493","code":"MA","name":"Maranhão"},{"id":"494","code":"MT","name":"Mato Grosso"},{"id":"495","code":"MS","name":"Mato Grosso do Sul"},{"id":"496","code":"MG","name":"Minas Gerais"},{"id":"497","code":"PA","name":"Pará"},{"id":"498","code":"PB","name":"Paraíba"},{"id":"499","code":"PR","name":"Paraná"},{"id":"500","code":"PE","name":"Pernambuco"},{"id":"501","code":"PI","name":"Piauí"},{"id":"502","code":"RJ","name":"Rio de Janeiro"},{"id":"503","code":"RN","name":"Rio Grande do Norte"},{"id":"504","code":"RS","name":"Rio Grande do Sul"},{"id":"505","code":"RO","name":"Rondônia"},{"id":"506","code":"RR","name":"Roraima"},{"id":"507","code":"SC","name":"Santa Catarina"},{"id":"508","code":"SP","name":"São Paulo"},{"id":"509","code":"SE","name":"Sergipe"},{"id":"510","code":"TO","name":"Tocantins"}]},{"id":"BS","two_letter_abbreviation":"BS","three_letter_abbreviation":"BHS","full_name_locale":"Bahamas","full_name_english":"Bahamas","dialling_code":"+1"},{"id":"BT","two_letter_abbreviation":"BT","three_letter_abbreviation":"BTN","full_name_locale":"Bhutan","full_name_english":"Bhutan","dialling_code":"+975"},{"id":"BW","two_letter_abbreviation":"BW","three_letter_abbreviation":"BWA","full_name_locale":"Botswana","full_name_english":"Botswana","dialling_code":"+267"},{"id":"BY","two_letter_abbreviation":"BY","three_letter_abbreviation":"BLR","full_name_locale":"Belarus","full_name_english":"Belarus","dialling_code":"+375"},{"id":"BZ","two_letter_abbreviation":"BZ","three_letter_abbreviation":"BLZ","full_name_locale":"Belize","full_name_english":"Belize","dialling_code":"+501"},{"id":"CA","two_letter_abbreviation":"CA","three_letter_abbreviation":"CAN","full_name_locale":"Canada","full_name_english":"Canada","dialling_code":"+1","available_regions":[{"id":"66","code":"AB","name":"Alberta"},{"id":"67","code":"BC","name":"British Columbia"},{"id":"68","code":"MB","name":"Manitoba"},{"id":"70","code":"NB","name":"New Brunswick"},{"id":"69","code":"NL","name":"Newfoundland and Labrador"},{"id":"72","code":"NT","name":"Northwest Territories"},{"id":"71","code":"NS","name":"Nova Scotia"},{"id":"73","code":"NU","name":"Nunavut"},{"id":"74","code":"ON","name":"Ontario"},{"id":"75","code":"PE","name":"Prince Edward Island"},{"id":"76","code":"QC","name":"Quebec"},{"id":"77","code":"SK","name":"Saskatchewan"},{"id":"78","code":"YT","name":"Yukon Territory"}]},{"id":"CD","two_letter_abbreviation":"CD","three_letter_abbreviation":"COD","full_name_locale":"Congo - Kinshasa","full_name_english":"Congo - Kinshasa","dialling_code":"+243"},{"id":"CF","two_letter_abbreviation":"CF","three_letter_abbreviation":"CAF","full_name_locale":"Central African Republic","full_name_english":"Central African Republic","dialling_code":"+236"},{"id":"CG","two_letter_abbreviation":"CG","three_letter_abbreviation":"COG","full_name_locale":"Congo - Brazzaville","full_name_english":"Congo - Brazzaville","dialling_code":"+242"},{"id":"CH","two_letter_abbreviation":"CH","three_letter_abbreviation":"CHE","full_name_locale":"Switzerland","full_name_english":"Switzerland","dialling_code":"+41","available_regions":[{"id":"104","code":"AG","name":"Aargau"},{"id":"106","code":"AR","name":"Appenzell Ausserrhoden"},{"id":"105","code":"AI","name":"Appenzell Innerrhoden"},{"id":"108","code":"BL","name":"Basel-Landschaft"},{"id":"109","code":"BS","name":"Basel-Stadt"},{"id":"107","code":"BE","name":"Bern"},{"id":"110","code":"FR","name":"Freiburg"},{"id":"111","code":"GE","name":"Genf"},{"id":"112","code":"GL","name":"Glarus"},{"id":"113","code":"GR","name":"Graubünden"},{"id":"114","code":"JU","name":"Jura"},{"id":"115","code":"LU","name":"Luzern"},{"id":"116","code":"NE","name":"Neuenburg"},{"id":"117","code":"NW","name":"Nidwalden"},{"id":"118","code":"OW","name":"Obwalden"},{"id":"120","code":"SH","name":"Schaffhausen"},{"id":"122","code":"SZ","name":"Schwyz"},{"id":"121","code":"SO","name":"Solothurn"},{"id":"119","code":"SG","name":"St. Gallen"},{"id":"124","code":"TI","name":"Tessin"},{"id":"123","code":"TG","name":"Thurgau"},{"id":"125","code":"UR","name":"Uri"},{"id":"126","code":"VD","name":"Waadt"},{"id":"127","code":"VS","name":"Wallis"},{"id":"128","code":"ZG","name":"Zug"},{"id":"129","code":"ZH","name":"Zürich"}]},{"id":"CI","two_letter_abbreviation":"CI","three_letter_abbreviation":"CIV","full_name_locale":"Côte d’Ivoire","full_name_english":"Côte d’Ivoire","dialling_code":"+225"},{"id":"CK","two_letter_abbreviation":"CK","three_letter_abbreviation":"COK","full_name_locale":"Cook Islands","full_name_english":"Cook Islands","dialling_code":"+682"},{"id":"CL","two_letter_abbreviation":"CL","three_letter_abbreviation":"CHL","full_name_locale":"Chile","full_name_english":"Chile","dialling_code":"+56"},{"id":"CM","two_letter_abbreviation":"CM","three_letter_abbreviation":"CMR","full_name_locale":"Cameroon","full_name_english":"Cameroon","dialling_code":"+237"},{"id":"CN","two_letter_abbreviation":"CN","three_letter_abbreviation":"CHN","full_name_locale":"China","full_name_english":"China","dialling_code":"+86"},{"id":"CO","two_letter_abbreviation":"CO","three_letter_abbreviation":"COL","full_name_locale":"Colombia","full_name_english":"Colombia","dialling_code":"+57"},{"id":"CR","two_letter_abbreviation":"CR","three_letter_abbreviation":"CRI","full_name_locale":"Costa Rica","full_name_english":"Costa Rica","dialling_code":"+506"},{"id":"CU","two_letter_abbreviation":"CU","three_letter_abbreviation":"CUB","full_name_locale":"Cuba","full_name_english":"Cuba","dialling_code":"+53"},{"id":"CV","two_letter_abbreviation":"CV","three_letter_abbreviation":"CPV","full_name_locale":"Cape Verde","full_name_english":"Cape Verde","dialling_code":"+238"},{"id":"CY","two_letter_abbreviation":"CY","three_letter_abbreviation":"CYP","full_name_locale":"Cyprus","full_name_english":"Cyprus","dialling_code":"+357"},{"id":"CZ","two_letter_abbreviation":"CZ","three_letter_abbreviation":"CZE","full_name_locale":"Czech Republic","full_name_english":"Czech Republic","dialling_code":"+420"},{"id":"DE","two_letter_abbreviation":"DE","three_letter_abbreviation":"DEU","full_name_locale":"Germany","full_name_english":"Germany","dialling_code":"+49","available_regions":[{"id":"80","code":"BAW","name":"Baden-Württemberg"},{"id":"81","code":"BAY","name":"Bayern"},{"id":"82","code":"BER","name":"Berlin"},{"id":"83","code":"BRG","name":"Brandenburg"},{"id":"84","code":"BRE","name":"Bremen"},{"id":"85","code":"HAM","name":"Hamburg"},{"id":"86","code":"HES","name":"Hessen"},{"id":"87","code":"MEC","name":"Mecklenburg-Vorpommern"},{"id":"79","code":"NDS","name":"Niedersachsen"},{"id":"88","code":"NRW","name":"Nordrhein-Westfalen"},{"id":"89","code":"RHE","name":"Rheinland-Pfalz"},{"id":"90","code":"SAR","name":"Saarland"},{"id":"91","code":"SAS","name":"Sachsen"},{"id":"92","code":"SAC","name":"Sachsen-Anhalt"},{"id":"93","code":"SCN","name":"Schleswig-Holstein"},{"id":"94","code":"THE","name":"Thüringen"}]},{"id":"DJ","two_letter_abbreviation":"DJ","three_letter_abbreviation":"DJI","full_name_locale":"Djibouti","full_name_english":"Djibouti","dialling_code":"+253"},{"id":"DK","two_letter_abbreviation":"DK","three_letter_abbreviation":"DNK","full_name_locale":"Denmark","full_name_english":"Denmark","dialling_code":"+45"},{"id":"DM","two_letter_abbreviation":"DM","three_letter_abbreviation":"DMA","full_name_locale":"Dominica","full_name_english":"Dominica","dialling_code":"+1"},{"id":"DO","two_letter_abbreviation":"DO","three_letter_abbreviation":"DOM","full_name_locale":"Dominican Republic","full_name_english":"Dominican Republic","dialling_code":"+1"},{"id":"DZ","two_letter_abbreviation":"DZ","three_letter_abbreviation":"DZA","full_name_locale":"Algeria","full_name_english":"Algeria","dialling_code":"+213"},{"id":"EC","two_letter_abbreviation":"EC","three_letter_abbreviation":"ECU","full_name_locale":"Ecuador","full_name_english":"Ecuador","dialling_code":"+593"},{"id":"EE","two_letter_abbreviation":"EE","three_letter_abbreviation":"EST","full_name_locale":"Estonia","full_name_english":"Estonia","dialling_code":"+372","available_regions":[{"id":"340","code":"EE-37","name":"Harjumaa"},{"id":"341","code":"EE-39","name":"Hiiumaa"},{"id":"342","code":"EE-44","name":"Ida-Virumaa"},{"id":"344","code":"EE-51","name":"Järvamaa"},{"id":"343","code":"EE-49","name":"Jõgevamaa"},{"id":"346","code":"EE-59","name":"Lääne-Virumaa"},{"id":"345","code":"EE-57","name":"Läänemaa"},{"id":"348","code":"EE-67","name":"Pärnumaa"},{"id":"347","code":"EE-65","name":"Põlvamaa"},{"id":"349","code":"EE-70","name":"Raplamaa"},{"id":"350","code":"EE-74","name":"Saaremaa"},{"id":"351","code":"EE-78","name":"Tartumaa"},{"id":"352","code":"EE-82","name":"Valgamaa"},{"id":"353","code":"EE-84","name":"Viljandimaa"},{"id":"354","code":"EE-86","name":"Võrumaa"}]},{"id":"EG","two_letter_abbreviation":"EG","three_letter_abbreviation":"EGY","full_name_locale":"Egypt","full_name_english":"Egypt","dialling_code":"+20"},{"id":"ER","two_letter_abbreviation":"ER","three_letter_abbreviation":"ERI","full_name_locale":"Eritrea","full_name_english":"Eritrea","dialling_code":"+291"},{"id":"ES","two_letter_abbreviation":"ES","three_letter_abbreviation":"ESP","full_name_locale":"Spain","full_name_english":"Spain","dialling_code":"+34","available_regions":[{"id":"130","code":"A Coruсa","name":"A Coruña"},{"id":"131","code":"Alava","name":"Alava"},{"id":"132","code":"Albacete","name":"Albacete"},{"id":"133","code":"Alicante","name":"Alicante"},{"id":"134","code":"Almeria","name":"Almeria"},{"id":"135","code":"Asturias","name":"Asturias"},{"id":"136","code":"Avila","name":"Avila"},{"id":"137","code":"Badajoz","name":"Badajoz"},{"id":"138","code":"Baleares","name":"Baleares"},{"id":"139","code":"Barcelona","name":"Barcelona"},{"id":"140","code":"Burgos","name":"Burgos"},{"id":"141","code":"Caceres","name":"Caceres"},{"id":"142","code":"Cadiz","name":"Cadiz"},{"id":"143","code":"Cantabria","name":"Cantabria"},{"id":"144","code":"Castellon","name":"Castellon"},{"id":"145","code":"Ceuta","name":"Ceuta"},{"id":"146","code":"Ciudad Real","name":"Ciudad Real"},{"id":"147","code":"Cordoba","name":"Cordoba"},{"id":"148","code":"Cuenca","name":"Cuenca"},{"id":"149","code":"Girona","name":"Girona"},{"id":"150","code":"Granada","name":"Granada"},{"id":"151","code":"Guadalajara","name":"Guadalajara"},{"id":"152","code":"Guipuzcoa","name":"Guipuzcoa"},{"id":"153","code":"Huelva","name":"Huelva"},{"id":"154","code":"Huesca","name":"Huesca"},{"id":"155","code":"Jaen","name":"Jaen"},{"id":"156","code":"La Rioja","name":"La Rioja"},{"id":"157","code":"Las Palmas","name":"Las Palmas"},{"id":"158","code":"Leon","name":"Leon"},{"id":"159","code":"Lleida","name":"Lleida"},{"id":"160","code":"Lugo","name":"Lugo"},{"id":"161","code":"Madrid","name":"Madrid"},{"id":"162","code":"Malaga","name":"Malaga"},{"id":"163","code":"Melilla","name":"Melilla"},{"id":"164","code":"Murcia","name":"Murcia"},{"id":"165","code":"Navarra","name":"Navarra"},{"id":"166","code":"Ourense","name":"Ourense"},{"id":"167","code":"Palencia","name":"Palencia"},{"id":"168","code":"Pontevedra","name":"Pontevedra"},{"id":"169","code":"Salamanca","name":"Salamanca"},{"id":"170","code":"Santa Cruz de Tenerife","name":"Santa Cruz de Tenerife"},{"id":"171","code":"Segovia","name":"Segovia"},{"id":"172","code":"Sevilla","name":"Sevilla"},{"id":"173","code":"Soria","name":"Soria"},{"id":"174","code":"Tarragona","name":"Tarragona"},{"id":"175","code":"Teruel","name":"Teruel"},{"id":"176","code":"Toledo","name":"Toledo"},{"id":"177","code":"Valencia","name":"Valencia"},{"id":"178","code":"Valladolid","name":"Valladolid"},{"id":"179","code":"Vizcaya","name":"Vizcaya"},{"id":"180","code":"Zamora","name":"Zamora"},{"id":"181","code":"Zaragoza","name":"Zaragoza"}]},{"id":"ET","two_letter_abbreviation":"ET","three_letter_abbreviation":"ETH","full_name_locale":"Ethiopia","full_name_english":"Ethiopia","dialling_code":"+251"},{"id":"FI","two_letter_abbreviation":"FI","three_letter_abbreviation":"FIN","full_name_locale":"Finland","full_name_english":"Finland","dialling_code":"+358","available_regions":[{"id":"339","code":"Ahvenanmaa","name":"Ahvenanmaa"},{"id":"333","code":"Etelä-Karjala","name":"Etelä-Karjala"},{"id":"326","code":"Etelä-Pohjanmaa","name":"Etelä-Pohjanmaa"},{"id":"325","code":"Etelä-Savo","name":"Etelä-Savo"},{"id":"337","code":"Itä-Uusimaa","name":"Itä-Uusimaa"},{"id":"322","code":"Kainuu","name":"Kainuu"},{"id":"335","code":"Kanta-Häme","name":"Kanta-Häme"},{"id":"330","code":"Keski-Pohjanmaa","name":"Keski-Pohjanmaa"},{"id":"331","code":"Keski-Suomi","name":"Keski-Suomi"},{"id":"338","code":"Kymenlaakso","name":"Kymenlaakso"},{"id":"320","code":"Lappi","name":"Lappi"},{"id":"334","code":"Päijät-Häme","name":"Päijät-Häme"},{"id":"328","code":"Pirkanmaa","name":"Pirkanmaa"},{"id":"327","code":"Pohjanmaa","name":"Pohjanmaa"},{"id":"323","code":"Pohjois-Karjala","name":"Pohjois-Karjala"},{"id":"321","code":"Pohjois-Pohjanmaa","name":"Pohjois-Pohjanmaa"},{"id":"324","code":"Pohjois-Savo","name":"Pohjois-Savo"},{"id":"329","code":"Satakunta","name":"Satakunta"},{"id":"336","code":"Uusimaa","name":"Uusimaa"},{"id":"332","code":"Varsinais-Suomi","name":"Varsinais-Suomi"}]},{"id":"FJ","two_letter_abbreviation":"FJ","three_letter_abbreviation":"FJI","full_name_locale":"Fiji","full_name_english":"Fiji","dialling_code":"+679"},{"id":"FK","two_letter_abbreviation":"FK","three_letter_abbreviation":"FLK","full_name_locale":"Falkland Islands","full_name_english":"Falkland Islands","dialling_code":"+500"},{"id":"FM","two_letter_abbreviation":"FM","three_letter_abbreviation":"FSM","full_name_locale":"Micronesia","full_name_english":"Micronesia","dialling_code":"+691"},{"id":"FO","two_letter_abbreviation":"FO","three_letter_abbreviation":"FRO","full_name_locale":"Faroe Islands","full_name_english":"Faroe Islands","dialling_code":"+298"},{"id":"FR","two_letter_abbreviation":"FR","three_letter_abbreviation":"FRA","full_name_locale":"France","full_name_english":"France","dialling_code":"+33","available_regions":[{"id":"182","code":"1","name":"Ain"},{"id":"183","code":"2","name":"Aisne"},{"id":"184","code":"3","name":"Allier"},{"id":"185","code":"4","name":"Alpes-de-Haute-Provence"},{"id":"187","code":"6","name":"Alpes-Maritimes"},{"id":"188","code":"7","name":"Ardèche"},{"id":"189","code":"8","name":"Ardennes"},{"id":"190","code":"9","name":"Ariège"},{"id":"191","code":"10","name":"Aube"},{"id":"192","code":"11","name":"Aude"},{"id":"193","code":"12","name":"Aveyron"},{"id":"249","code":"67","name":"Bas-Rhin"},{"id":"194","code":"13","name":"Bouches-du-Rhône"},{"id":"195","code":"14","name":"Calvados"},{"id":"196","code":"15","name":"Cantal"},{"id":"197","code":"16","name":"Charente"},{"id":"198","code":"17","name":"Charente-Maritime"},{"id":"199","code":"18","name":"Cher"},{"id":"200","code":"19","name":"Corrèze"},{"id":"201","code":"2A","name":"Corse-du-Sud"},{"id":"203","code":"21","name":"Côte-d'Or"},{"id":"204","code":"22","name":"Côtes-d'Armor"},{"id":"205","code":"23","name":"Creuse"},{"id":"261","code":"79","name":"Deux-Sèvres"},{"id":"206","code":"24","name":"Dordogne"},{"id":"207","code":"25","name":"Doubs"},{"id":"208","code":"26","name":"Drôme"},{"id":"273","code":"91","name":"Essonne"},{"id":"209","code":"27","name":"Eure"},{"id":"210","code":"28","name":"Eure-et-Loir"},{"id":"211","code":"29","name":"Finistère"},{"id":"212","code":"30","name":"Gard"},{"id":"214","code":"32","name":"Gers"},{"id":"215","code":"33","name":"Gironde"},{"id":"250","code":"68","name":"Haut-Rhin"},{"id":"202","code":"2B","name":"Haute-Corse"},{"id":"213","code":"31","name":"Haute-Garonne"},{"id":"225","code":"43","name":"Haute-Loire"},{"id":"234","code":"52","name":"Haute-Marne"},{"id":"252","code":"70","name":"Haute-Saône"},{"id":"256","code":"74","name":"Haute-Savoie"},{"id":"269","code":"87","name":"Haute-Vienne"},{"id":"186","code":"5","name":"Hautes-Alpes"},{"id":"247","code":"65","name":"Hautes-Pyrénées"},{"id":"274","code":"92","name":"Hauts-de-Seine"},{"id":"216","code":"34","name":"Hérault"},{"id":"217","code":"35","name":"Ille-et-Vilaine"},{"id":"218","code":"36","name":"Indre"},{"id":"219","code":"37","name":"Indre-et-Loire"},{"id":"220","code":"38","name":"Isère"},{"id":"221","code":"39","name":"Jura"},{"id":"222","code":"40","name":"Landes"},{"id":"223","code":"41","name":"Loir-et-Cher"},{"id":"224","code":"42","name":"Loire"},{"id":"226","code":"44","name":"Loire-Atlantique"},{"id":"227","code":"45","name":"Loiret"},{"id":"228","code":"46","name":"Lot"},{"id":"229","code":"47","name":"Lot-et-Garonne"},{"id":"230","code":"48","name":"Lozère"},{"id":"231","code":"49","name":"Maine-et-Loire"},{"id":"232","code":"50","name":"Manche"},{"id":"233","code":"51","name":"Marne"},{"id":"235","code":"53","name":"Mayenne"},{"id":"236","code":"54","name":"Meurthe-et-Moselle"},{"id":"237","code":"55","name":"Meuse"},{"id":"238","code":"56","name":"Morbihan"},{"id":"239","code":"57","name":"Moselle"},{"id":"240","code":"58","name":"Nièvre"},{"id":"241","code":"59","name":"Nord"},{"id":"242","code":"60","name":"Oise"},{"id":"243","code":"61","name":"Orne"},{"id":"257","code":"75","name":"Paris"},{"id":"244","code":"62","name":"Pas-de-Calais"},{"id":"245","code":"63","name":"Puy-de-Dôme"},{"id":"246","code":"64","name":"Pyrénées-Atlantiques"},{"id":"248","code":"66","name":"Pyrénées-Orientales"},{"id":"251","code":"69","name":"Rhône"},{"id":"253","code":"71","name":"Saône-et-Loire"},{"id":"254","code":"72","name":"Sarthe"},{"id":"255","code":"73","name":"Savoie"},{"id":"259","code":"77","name":"Seine-et-Marne"},{"id":"258","code":"76","name":"Seine-Maritime"},{"id":"275","code":"93","name":"Seine-Saint-Denis"},{"id":"262","code":"80","name":"Somme"},{"id":"263","code":"81","name":"Tarn"},{"id":"264","code":"82","name":"Tarn-et-Garonne"},{"id":"272","code":"90","name":"Territoire-de-Belfort"},{"id":"277","code":"95","name":"Val-d'Oise"},{"id":"276","code":"94","name":"Val-de-Marne"},{"id":"265","code":"83","name":"Var"},{"id":"266","code":"84","name":"Vaucluse"},{"id":"267","code":"85","name":"Vendée"},{"id":"268","code":"86","name":"Vienne"},{"id":"270","code":"88","name":"Vosges"},{"id":"271","code":"89","name":"Yonne"},{"id":"260","code":"78","name":"Yvelines"}]},{"id":"GA","two_letter_abbreviation":"GA","three_letter_abbreviation":"GAB","full_name_locale":"Gabon","full_name_english":"Gabon","dialling_code":"+241"},{"id":"GB","two_letter_abbreviation":"GB","three_letter_abbreviation":"GBR","full_name_locale":"United Kingdom","full_name_english":"United Kingdom","dialling_code":"+44"},{"id":"GD","two_letter_abbreviation":"GD","three_letter_abbreviation":"GRD","full_name_locale":"Grenada","full_name_english":"Grenada","dialling_code":"+1"},{"id":"GE","two_letter_abbreviation":"GE","three_letter_abbreviation":"GEO","full_name_locale":"Georgia","full_name_english":"Georgia","dialling_code":"+995"},{"id":"GF","two_letter_abbreviation":"GF","three_letter_abbreviation":"GUF","full_name_locale":"French Guiana","full_name_english":"French Guiana","dialling_code":"+594"},{"id":"GH","two_letter_abbreviation":"GH","three_letter_abbreviation":"GHA","full_name_locale":"Ghana","full_name_english":"Ghana","dialling_code":"+233"},{"id":"GI","two_letter_abbreviation":"GI","three_letter_abbreviation":"GIB","full_name_locale":"Gibraltar","full_name_english":"Gibraltar","dialling_code":"+350"},{"id":"GL","two_letter_abbreviation":"GL","three_letter_abbreviation":"GRL","full_name_locale":"Greenland","full_name_english":"Greenland","dialling_code":"+299"},{"id":"GM","two_letter_abbreviation":"GM","three_letter_abbreviation":"GMB","full_name_locale":"Gambia","full_name_english":"Gambia","dialling_code":"+220"},{"id":"GN","two_letter_abbreviation":"GN","three_letter_abbreviation":"GIN","full_name_locale":"Guinea","full_name_english":"Guinea","dialling_code":"+224"},{"id":"GP","two_letter_abbreviation":"GP","three_letter_abbreviation":"GLP","full_name_locale":"Guadeloupe","full_name_english":"Guadeloupe","dialling_code":"+590"},{"id":"GQ","two_letter_abbreviation":"GQ","three_letter_abbreviation":"GNQ","full_name_locale":"Equatorial Guinea","full_name_english":"Equatorial Guinea","dialling_code":"+240"},{"id":"GR","two_letter_abbreviation":"GR","three_letter_abbreviation":"GRC","full_name_locale":"Greece","full_name_english":"Greece","dialling_code":"+30"},{"id":"GT","two_letter_abbreviation":"GT","three_letter_abbreviation":"GTM","full_name_locale":"Guatemala","full_name_english":"Guatemala","dialling_code":"+502"},{"id":"GU","two_letter_abbreviation":"GU","three_letter_abbreviation":"GUM","full_name_locale":"Guam","full_name_english":"Guam","dialling_code":"+1"},{"id":"GW","two_letter_abbreviation":"GW","three_letter_abbreviation":"GNB","full_name_locale":"Guinea-Bissau","full_name_english":"Guinea-Bissau","dialling_code":"+245"},{"id":"GY","two_letter_abbreviation":"GY","three_letter_abbreviation":"GUY","full_name_locale":"Guyana","full_name_english":"Guyana","dialling_code":"+592"},{"id":"HK","two_letter_abbreviation":"HK","three_letter_abbreviation":"HKG","full_name_locale":"Hong Kong SAR China","full_name_english":"Hong Kong SAR China","dialling_code":"+852"},{"id":"HN","two_letter_abbreviation":"HN","three_letter_abbreviation":"HND","full_name_locale":"Honduras","full_name_english":"Honduras","dialling_code":"+504"},{"id":"HR","two_letter_abbreviation":"HR","three_letter_abbreviation":"HRV","full_name_locale":"Croatia","full_name_english":"Croatia","dialling_code":"+385","available_regions":[{"id":"518","code":"HR-07","name":"Bjelovarsko-bilogorska županija"},{"id":"523","code":"HR-12","name":"Brodsko-posavska županija"},{"id":"530","code":"HR-19","name":"Dubrovačko-neretvanska županija"},{"id":"532","code":"HR-21","name":"Grad Zagreb"},{"id":"529","code":"HR-18","name":"Istarska županija"},{"id":"515","code":"HR-04","name":"Karlovačka županija"},{"id":"517","code":"HR-06","name":"Koprivničko-križevačka županija"},{"id":"513","code":"HR-02","name":"Krapinsko-zagorska županija"},{"id":"520","code":"HR-09","name":"Ličko-senjska županija"},{"id":"531","code":"HR-20","name":"Međimurska županija"},{"id":"525","code":"HR-14","name":"Osječko-baranjska županija"},{"id":"522","code":"HR-11","name":"Požeško-slavonska županija"},{"id":"519","code":"HR-08","name":"Primorsko-goranska županija"},{"id":"526","code":"HR-15","name":"Šibensko-kninska županija"},{"id":"514","code":"HR-03","name":"Sisačko-moslavačka županija"},{"id":"528","code":"HR-17","name":"Splitsko-dalmatinska županija"},{"id":"516","code":"HR-05","name":"Varaždinska županija"},{"id":"521","code":"HR-10","name":"Virovitičko-podravska županija"},{"id":"527","code":"HR-16","name":"Vukovarsko-srijemska županija"},{"id":"524","code":"HR-13","name":"Zadarska županija"},{"id":"512","code":"HR-01","name":"Zagrebačka županija"}]},{"id":"HT","two_letter_abbreviation":"HT","three_letter_abbreviation":"HTI","full_name_locale":"Haiti","full_name_english":"Haiti","dialling_code":"+509"},{"id":"HU","two_letter_abbreviation":"HU","three_letter_abbreviation":"HUN","full_name_locale":"Hungary","full_name_english":"Hungary","dialling_code":"+36"},{"id":"ID","two_letter_abbreviation":"ID","three_letter_abbreviation":"IDN","full_name_locale":"Indonesia","full_name_english":"Indonesia","dialling_code":"+235"},{"id":"IE","two_letter_abbreviation":"IE","three_letter_abbreviation":"IRL","full_name_locale":"Ireland","full_name_english":"Ireland","dialling_code":"+353"},{"id":"IL","two_letter_abbreviation":"IL","three_letter_abbreviation":"ISR","full_name_locale":"Israel","full_name_english":"Israel","dialling_code":"+972"},{"id":"IN","two_letter_abbreviation":"IN","three_letter_abbreviation":"IND","full_name_locale":"India","full_name_english":"India","dialling_code":"+91","available_regions":[{"id":"533","code":"AN","name":"Andaman and Nicobar Islands"},{"id":"534","code":"AP","name":"Andhra Pradesh"},{"id":"535","code":"AR","name":"Arunachal Pradesh"},{"id":"536","code":"AS","name":"Assam"},{"id":"537","code":"BR","name":"Bihar"},{"id":"538","code":"CH","name":"Chandigarh"},{"id":"539","code":"CT","name":"Chhattisgarh"},{"id":"540","code":"DN","name":"Dadra and Nagar Haveli"},{"id":"541","code":"DD","name":"Daman and Diu"},{"id":"542","code":"DL","name":"Delhi"},{"id":"543","code":"GA","name":"Goa"},{"id":"544","code":"GJ","name":"Gujarat"},{"id":"545","code":"HR","name":"Haryana"},{"id":"546","code":"HP","name":"Himachal Pradesh"},{"id":"547","code":"JK","name":"Jammu and Kashmir"},{"id":"548","code":"JH","name":"Jharkhand"},{"id":"549","code":"KA","name":"Karnataka"},{"id":"550","code":"KL","name":"Kerala"},{"id":"551","code":"LD","name":"Lakshadweep"},{"id":"552","code":"MP","name":"Madhya Pradesh"},{"id":"553","code":"MH","name":"Maharashtra"},{"id":"554","code":"MN","name":"Manipur"},{"id":"555","code":"ML","name":"Meghalaya"},{"id":"556","code":"MZ","name":"Mizoram"},{"id":"557","code":"NL","name":"Nagaland"},{"id":"558","code":"OR","name":"Odisha"},{"id":"559","code":"PY","name":"Puducherry"},{"id":"560","code":"PB","name":"Punjab"},{"id":"561","code":"RJ","name":"Rajasthan"},{"id":"562","code":"SK","name":"Sikkim"},{"id":"563","code":"TN","name":"Tamil Nadu"},{"id":"564","code":"TG","name":"Telangana"},{"id":"565","code":"TR","name":"Tripura"},{"id":"566","code":"UP","name":"Uttar Pradesh"},{"id":"567","code":"UT","name":"Uttarakhand"},{"id":"568","code":"WB","name":"West Bengal"}]},{"id":"IO","two_letter_abbreviation":"IO","three_letter_abbreviation":"IOT","full_name_locale":"British Indian Ocean Territory","full_name_english":"British Indian Ocean Territory","dialling_code":"+246"},{"id":"IQ","two_letter_abbreviation":"IQ","three_letter_abbreviation":"IRQ","full_name_locale":"Iraq","full_name_english":"Iraq","dialling_code":"+964"},{"id":"IR","two_letter_abbreviation":"IR","three_letter_abbreviation":"IRN","full_name_locale":"Iran","full_name_english":"Iran","dialling_code":"+98"},{"id":"IS","two_letter_abbreviation":"IS","three_letter_abbreviation":"ISL","full_name_locale":"Iceland","full_name_english":"Iceland","dialling_code":"+354"},{"id":"IT","two_letter_abbreviation":"IT","three_letter_abbreviation":"ITA","full_name_locale":"Italy","full_name_english":"Italy","dialling_code":"+39"},{"id":"JM","two_letter_abbreviation":"JM","three_letter_abbreviation":"JAM","full_name_locale":"Jamaica","full_name_english":"Jamaica","dialling_code":"+1"},{"id":"JO","two_letter_abbreviation":"JO","three_letter_abbreviation":"JOR","full_name_locale":"Jordan","full_name_english":"Jordan","dialling_code":"+962"},{"id":"JP","two_letter_abbreviation":"JP","three_letter_abbreviation":"JPN","full_name_locale":"Japan","full_name_english":"Japan","dialling_code":"+81","available_regions":[{"id":"592","code":"JP-24","name":"三重県"},{"id":"594","code":"JP-26","name":"京都府"},{"id":"609","code":"JP-41","name":"佐賀県"},{"id":"596","code":"JP-28","name":"兵庫県"},{"id":"569","code":"JP-01","name":"北海道"},{"id":"580","code":"JP-12","name":"千葉県"},{"id":"598","code":"JP-30","name":"和歌山県"},{"id":"579","code":"JP-11","name":"埼玉県"},{"id":"612","code":"JP-44","name":"大分県"},{"id":"595","code":"JP-27","name":"大阪府"},{"id":"597","code":"JP-29","name":"奈良県"},{"id":"572","code":"JP-04","name":"宮城県"},{"id":"613","code":"JP-45","name":"宮崎県"},{"id":"584","code":"JP-16","name":"富山県"},{"id":"603","code":"JP-35","name":"山口県"},{"id":"574","code":"JP-06","name":"山形県"},{"id":"587","code":"JP-19","name":"山梨県"},{"id":"589","code":"JP-21","name":"岐阜県"},{"id":"601","code":"JP-33","name":"岡山県"},{"id":"571","code":"JP-03","name":"岩手県"},{"id":"600","code":"JP-32","name":"島根県"},{"id":"602","code":"JP-34","name":"広島県"},{"id":"604","code":"JP-36","name":"徳島県"},{"id":"606","code":"JP-38","name":"愛媛県"},{"id":"591","code":"JP-23","name":"愛知県"},{"id":"583","code":"JP-15","name":"新潟県"},{"id":"581","code":"JP-13","name":"東京都"},{"id":"577","code":"JP-09","name":"栃木県"},{"id":"615","code":"JP-47","name":"沖縄県"},{"id":"593","code":"JP-25","name":"滋賀県"},{"id":"611","code":"JP-43","name":"熊本県"},{"id":"585","code":"JP-17","name":"石川県"},{"id":"582","code":"JP-14","name":"神奈川県"},{"id":"586","code":"JP-18","name":"福井県"},{"id":"608","code":"JP-40","name":"福岡県"},{"id":"575","code":"JP-07","name":"福島県"},{"id":"573","code":"JP-05","name":"秋田県"},{"id":"578","code":"JP-10","name":"群馬県"},{"id":"576","code":"JP-08","name":"茨城県"},{"id":"610","code":"JP-42","name":"長崎県"},{"id":"588","code":"JP-20","name":"長野県"},{"id":"570","code":"JP-02","name":"青森県"},{"id":"590","code":"JP-22","name":"静岡県"},{"id":"605","code":"JP-37","name":"香川県"},{"id":"607","code":"JP-39","name":"高知県"},{"id":"599","code":"JP-31","name":"鳥取県"},{"id":"614","code":"JP-46","name":"鹿児島県"}]},{"id":"KE","two_letter_abbreviation":"KE","three_letter_abbreviation":"KEN","full_name_locale":"Kenya","full_name_english":"Kenya","dialling_code":"+254"},{"id":"KG","two_letter_abbreviation":"KG","three_letter_abbreviation":"KGZ","full_name_locale":"Kyrgyzstan","full_name_english":"Kyrgyzstan","dialling_code":"+996"},{"id":"KH","two_letter_abbreviation":"KH","three_letter_abbreviation":"KHM","full_name_locale":"Cambodia","full_name_english":"Cambodia","dialling_code":"+855"},{"id":"KI","two_letter_abbreviation":"KI","three_letter_abbreviation":"KIR","full_name_locale":"Kiribati","full_name_english":"Kiribati","dialling_code":"+686"},{"id":"KM","two_letter_abbreviation":"KM","three_letter_abbreviation":"COM","full_name_locale":"Comoros","full_name_english":"Comoros","dialling_code":"+269"},{"id":"KN","two_letter_abbreviation":"KN","three_letter_abbreviation":"KNA","full_name_locale":"St. Kitts & Nevis","full_name_english":"St. Kitts & Nevis","dialling_code":"+1"},{"id":"KP","two_letter_abbreviation":"KP","three_letter_abbreviation":"PRK","full_name_locale":"North Korea","full_name_english":"North Korea","dialling_code":"+850"},{"id":"KR","two_letter_abbreviation":"KR","three_letter_abbreviation":"KOR","full_name_locale":"South Korea","full_name_english":"South Korea","dialling_code":"+82"},{"id":"KW","two_letter_abbreviation":"KW","three_letter_abbreviation":"KWT","full_name_locale":"Kuwait","full_name_english":"Kuwait","dialling_code":"+965"},{"id":"KY","two_letter_abbreviation":"KY","three_letter_abbreviation":"CYM","full_name_locale":"Cayman Islands","full_name_english":"Cayman Islands","dialling_code":"+1"},{"id":"KZ","two_letter_abbreviation":"KZ","three_letter_abbreviation":"KAZ","full_name_locale":"Kazakhstan","full_name_english":"Kazakhstan","dialling_code":"+7"},{"id":"LA","two_letter_abbreviation":"LA","three_letter_abbreviation":"LAO","full_name_locale":"Laos","full_name_english":"Laos","dialling_code":"+856"},{"id":"LB","two_letter_abbreviation":"LB","three_letter_abbreviation":"LBN","full_name_locale":"Lebanon","full_name_english":"Lebanon","dialling_code":"+961"},{"id":"LC","two_letter_abbreviation":"LC","three_letter_abbreviation":"LCA","full_name_locale":"St. Lucia","full_name_english":"St. Lucia","dialling_code":"+1"},{"id":"LI","two_letter_abbreviation":"LI","three_letter_abbreviation":"LIE","full_name_locale":"Liechtenstein","full_name_english":"Liechtenstein","dialling_code":"+423"},{"id":"LK","two_letter_abbreviation":"LK","three_letter_abbreviation":"LKA","full_name_locale":"Sri Lanka","full_name_english":"Sri Lanka","dialling_code":"+94"},{"id":"LR","two_letter_abbreviation":"LR","three_letter_abbreviation":"LBR","full_name_locale":"Liberia","full_name_english":"Liberia","dialling_code":"+231"},{"id":"LS","two_letter_abbreviation":"LS","three_letter_abbreviation":"LSO","full_name_locale":"Lesotho","full_name_english":"Lesotho","dialling_code":"+266"},{"id":"LT","two_letter_abbreviation":"LT","three_letter_abbreviation":"LTU","full_name_locale":"Lithuania","full_name_english":"Lithuania","dialling_code":"+370","available_regions":[{"id":"475","code":"LT-AL","name":"Alytaus Apskritis"},{"id":"476","code":"LT-KU","name":"Kauno Apskritis"},{"id":"477","code":"LT-KL","name":"Klaipėdos Apskritis"},{"id":"478","code":"LT-MR","name":"Marijampolės Apskritis"},{"id":"479","code":"LT-PN","name":"Panevėžio Apskritis"},{"id":"480","code":"LT-SA","name":"Šiaulių Apskritis"},{"id":"481","code":"LT-TA","name":"Tauragės Apskritis"},{"id":"482","code":"LT-TE","name":"Telšių Apskritis"},{"id":"483","code":"LT-UT","name":"Utenos Apskritis"},{"id":"484","code":"LT-VL","name":"Vilniaus Apskritis"}]},{"id":"LU","two_letter_abbreviation":"LU","three_letter_abbreviation":"LUX","full_name_locale":"Luxembourg","full_name_english":"Luxembourg","dialling_code":"+352"},{"id":"LV","two_letter_abbreviation":"LV","three_letter_abbreviation":"LVA","full_name_locale":"Latvia","full_name_english":"Latvia","dialling_code":"+371","available_regions":[{"id":"471","code":"Ādažu novads","name":"Ādažu novads"},{"id":"366","code":"Aglonas novads","name":"Aglonas novads"},{"id":"367","code":"LV-AI","name":"Aizkraukles novads"},{"id":"368","code":"Aizputes novads","name":"Aizputes novads"},{"id":"369","code":"Aknīstes novads","name":"Aknīstes novads"},{"id":"370","code":"Alojas novads","name":"Alojas novads"},{"id":"371","code":"Alsungas novads","name":"Alsungas novads"},{"id":"372","code":"LV-AL","name":"Alūksnes novads"},{"id":"373","code":"Amatas novads","name":"Amatas novads"},{"id":"374","code":"Apes novads","name":"Apes novads"},{"id":"375","code":"Auces novads","name":"Auces novads"},{"id":"376","code":"Babītes novads","name":"Babītes novads"},{"id":"377","code":"Baldones novads","name":"Baldones novads"},{"id":"378","code":"Baltinavas novads","name":"Baltinavas novads"},{"id":"379","code":"LV-BL","name":"Balvu novads"},{"id":"380","code":"LV-BU","name":"Bauskas novads"},{"id":"381","code":"Beverīnas novads","name":"Beverīnas novads"},{"id":"382","code":"Brocēnu novads","name":"Brocēnu novads"},{"id":"383","code":"Burtnieku novads","name":"Burtnieku novads"},{"id":"384","code":"Carnikavas novads","name":"Carnikavas novads"},{"id":"387","code":"LV-CE","name":"Cēsu novads"},{"id":"385","code":"Cesvaines novads","name":"Cesvaines novads"},{"id":"386","code":"Ciblas novads","name":"Ciblas novads"},{"id":"388","code":"Dagdas novads","name":"Dagdas novads"},{"id":"355","code":"LV-DGV","name":"Daugavpils"},{"id":"389","code":"LV-DA","name":"Daugavpils novads"},{"id":"390","code":"LV-DO","name":"Dobeles novads"},{"id":"391","code":"Dundagas novads","name":"Dundagas novads"},{"id":"392","code":"Durbes novads","name":"Durbes novads"},{"id":"393","code":"Engures novads","name":"Engures novads"},{"id":"472","code":"Ērgļu novads","name":"Ērgļu novads"},{"id":"394","code":"Garkalnes novads","name":"Garkalnes novads"},{"id":"395","code":"Grobiņas novads","name":"Grobiņas novads"},{"id":"396","code":"LV-GU","name":"Gulbenes novads"},{"id":"397","code":"Iecavas novads","name":"Iecavas novads"},{"id":"398","code":"Ikšķiles novads","name":"Ikšķiles novads"},{"id":"399","code":"Ilūkstes novads","name":"Ilūkstes novads"},{"id":"400","code":"Inčukalna novads","name":"Inčukalna novads"},{"id":"401","code":"Jaunjelgavas novads","name":"Jaunjelgavas novads"},{"id":"402","code":"Jaunpiebalgas novads","name":"Jaunpiebalgas novads"},{"id":"403","code":"Jaunpils novads","name":"Jaunpils novads"},{"id":"357","code":"Jēkabpils","name":"Jēkabpils"},{"id":"405","code":"LV-JK","name":"Jēkabpils novads"},{"id":"356","code":"LV-JEL","name":"Jelgava"},{"id":"404","code":"LV-JL","name":"Jelgavas novads"},{"id":"358","code":"LV-JUR","name":"Jūrmala"},{"id":"406","code":"Kandavas novads","name":"Kandavas novads"},{"id":"412","code":"Kārsavas novads","name":"Kārsavas novads"},{"id":"473","code":"Ķeguma novads","name":"Ķeguma novads"},{"id":"474","code":"Ķekavas novads","name":"Ķekavas novads"},{"id":"407","code":"Kokneses novads","name":"Kokneses novads"},{"id":"410","code":"LV-KR","name":"Krāslavas novads"},{"id":"408","code":"Krimuldas novads","name":"Krimuldas novads"},{"id":"409","code":"Krustpils novads","name":"Krustpils novads"},{"id":"411","code":"LV-KU","name":"Kuldīgas novads"},{"id":"413","code":"Lielvārdes novads","name":"Lielvārdes novads"},{"id":"359","code":"LV-LPX","name":"Liepāja"},{"id":"360","code":"LV-LE","name":"Liepājas novads"},{"id":"417","code":"Līgatnes novads","name":"Līgatnes novads"},{"id":"414","code":"LV-LM","name":"Limbažu novads"},{"id":"418","code":"Līvānu novads","name":"Līvānu novads"},{"id":"415","code":"Lubānas novads","name":"Lubānas novads"},{"id":"416","code":"LV-LU","name":"Ludzas novads"},{"id":"419","code":"LV-MA","name":"Madonas novads"},{"id":"421","code":"Mālpils novads","name":"Mālpils novads"},{"id":"422","code":"Mārupes novads","name":"Mārupes novads"},{"id":"420","code":"Mazsalacas novads","name":"Mazsalacas novads"},{"id":"423","code":"Naukšēnu novads","name":"Naukšēnu novads"},{"id":"424","code":"Neretas novads","name":"Neretas novads"},{"id":"425","code":"Nīcas novads","name":"Nīcas novads"},{"id":"426","code":"LV-OG","name":"Ogres novads"},{"id":"427","code":"Olaines novads","name":"Olaines novads"},{"id":"428","code":"Ozolnieku novads","name":"Ozolnieku novads"},{"id":"432","code":"Pārgaujas novads","name":"Pārgaujas novads"},{"id":"433","code":"Pāvilostas novads","name":"Pāvilostas novads"},{"id":"434","code":"Pļaviņu novads","name":"Pļaviņu novads"},{"id":"429","code":"LV-PR","name":"Preiļu novads"},{"id":"430","code":"Priekules novads","name":"Priekules novads"},{"id":"431","code":"Priekuļu novads","name":"Priekuļu novads"},{"id":"435","code":"Raunas novads","name":"Raunas novads"},{"id":"361","code":"LV-REZ","name":"Rēzekne"},{"id":"442","code":"LV-RE","name":"Rēzeknes novads"},{"id":"436","code":"Riebiņu novads","name":"Riebiņu novads"},{"id":"362","code":"LV-RIX","name":"Rīga"},{"id":"363","code":"LV-RI","name":"Rīgas novads"},{"id":"437","code":"Rojas novads","name":"Rojas novads"},{"id":"438","code":"Ropažu novads","name":"Ropažu novads"},{"id":"439","code":"Rucavas novads","name":"Rucavas novads"},{"id":"440","code":"Rugāju novads","name":"Rugāju novads"},{"id":"443","code":"Rūjienas novads","name":"Rūjienas novads"},{"id":"441","code":"Rundāles novads","name":"Rundāles novads"},{"id":"444","code":"Salacgrīvas novads","name":"Salacgrīvas novads"},{"id":"445","code":"Salas novads","name":"Salas novads"},{"id":"446","code":"Salaspils novads","name":"Salaspils novads"},{"id":"447","code":"LV-SA","name":"Saldus novads"},{"id":"448","code":"Saulkrastu novads","name":"Saulkrastu novads"},{"id":"455","code":"Sējas novads","name":"Sējas novads"},{"id":"449","code":"Siguldas novads","name":"Siguldas novads"},{"id":"451","code":"Skrīveru novads","name":"Skrīveru novads"},{"id":"450","code":"Skrundas novads","name":"Skrundas novads"},{"id":"452","code":"Smiltenes novads","name":"Smiltenes novads"},{"id":"453","code":"Stopiņu novads","name":"Stopiņu novads"},{"id":"454","code":"Strenču novads","name":"Strenču novads"},{"id":"456","code":"LV-TA","name":"Talsu novads"},{"id":"458","code":"Tērvetes novads","name":"Tērvetes novads"},{"id":"457","code":"LV-TU","name":"Tukuma novads"},{"id":"459","code":"Vaiņodes novads","name":"Vaiņodes novads"},{"id":"460","code":"LV-VK","name":"Valkas novads"},{"id":"364","code":"Valmiera","name":"Valmiera"},{"id":"461","code":"LV-VM","name":"Valmieras novads"},{"id":"462","code":"Varakļānu novads","name":"Varakļānu novads"},{"id":"469","code":"Vārkavas novads","name":"Vārkavas novads"},{"id":"463","code":"Vecpiebalgas novads","name":"Vecpiebalgas novads"},{"id":"464","code":"Vecumnieku novads","name":"Vecumnieku novads"},{"id":"365","code":"LV-VEN","name":"Ventspils"},{"id":"465","code":"LV-VE","name":"Ventspils novads"},{"id":"466","code":"Viesītes novads","name":"Viesītes novads"},{"id":"467","code":"Viļakas novads","name":"Viļakas novads"},{"id":"468","code":"Viļānu novads","name":"Viļānu novads"},{"id":"470","code":"Zilupes novads","name":"Zilupes novads"}]},{"id":"LY","two_letter_abbreviation":"LY","three_letter_abbreviation":"LBY","full_name_locale":"Libya","full_name_english":"Libya","dialling_code":"+218"},{"id":"MA","two_letter_abbreviation":"MA","three_letter_abbreviation":"MAR","full_name_locale":"Morocco","full_name_english":"Morocco","dialling_code":"+212"},{"id":"MC","two_letter_abbreviation":"MC","three_letter_abbreviation":"MCO","full_name_locale":"Monaco","full_name_english":"Monaco","dialling_code":"+377"},{"id":"MD","two_letter_abbreviation":"MD","three_letter_abbreviation":"MDA","full_name_locale":"Moldova","full_name_english":"Moldova","dialling_code":"+373"},{"id":"ME","two_letter_abbreviation":"ME","three_letter_abbreviation":"MNE","full_name_locale":"Montenegro","full_name_english":"Montenegro","dialling_code":"+382"},{"id":"MF","two_letter_abbreviation":"MF","three_letter_abbreviation":"MAF","full_name_locale":"St. Martin","full_name_english":"St. Martin","dialling_code":"+590"},{"id":"MG","two_letter_abbreviation":"MG","three_letter_abbreviation":"MDG","full_name_locale":"Madagascar","full_name_english":"Madagascar","dialling_code":"+261"},{"id":"MH","two_letter_abbreviation":"MH","three_letter_abbreviation":"MHL","full_name_locale":"Marshall Islands","full_name_english":"Marshall Islands","dialling_code":"+692"},{"id":"MK","two_letter_abbreviation":"MK","three_letter_abbreviation":"MKD","full_name_locale":"Macedonia","full_name_english":"Macedonia","dialling_code":"+389"},{"id":"ML","two_letter_abbreviation":"ML","three_letter_abbreviation":"MLI","full_name_locale":"Mali","full_name_english":"Mali","dialling_code":"+223"},{"id":"MM","two_letter_abbreviation":"MM","three_letter_abbreviation":"MMR","full_name_locale":"Myanmar (Burma)","full_name_english":"Myanmar (Burma)","dialling_code":"+95"},{"id":"MN","two_letter_abbreviation":"MN","three_letter_abbreviation":"MNG","full_name_locale":"Mongolia","full_name_english":"Mongolia","dialling_code":"+976"},{"id":"MO","two_letter_abbreviation":"MO","three_letter_abbreviation":"MAC","full_name_locale":"Macau SAR China","full_name_english":"Macau SAR China","dialling_code":"+853"},{"id":"MP","two_letter_abbreviation":"MP","three_letter_abbreviation":"MNP","full_name_locale":"Northern Mariana Islands","full_name_english":"Northern Mariana Islands","dialling_code":"+1"},{"id":"MQ","two_letter_abbreviation":"MQ","three_letter_abbreviation":"MTQ","full_name_locale":"Martinique","full_name_english":"Martinique","dialling_code":"+596"},{"id":"MR","two_letter_abbreviation":"MR","three_letter_abbreviation":"MRT","full_name_locale":"Mauritania","full_name_english":"Mauritania","dialling_code":"+222"},{"id":"MS","two_letter_abbreviation":"MS","three_letter_abbreviation":"MSR","full_name_locale":"Montserrat","full_name_english":"Montserrat","dialling_code":"+1"},{"id":"MT","two_letter_abbreviation":"MT","three_letter_abbreviation":"MLT","full_name_locale":"Malta","full_name_english":"Malta","dialling_code":"+356"},{"id":"MU","two_letter_abbreviation":"MU","three_letter_abbreviation":"MUS","full_name_locale":"Mauritius","full_name_english":"Mauritius","dialling_code":"+230"},{"id":"MV","two_letter_abbreviation":"MV","three_letter_abbreviation":"MDV","full_name_locale":"Maldives","full_name_english":"Maldives","dialling_code":"+960"},{"id":"MW","two_letter_abbreviation":"MW","three_letter_abbreviation":"MWI","full_name_locale":"Malawi","full_name_english":"Malawi","dialling_code":"+265"},{"id":"MX","two_letter_abbreviation":"MX","three_letter_abbreviation":"MEX","full_name_locale":"Mexico","full_name_english":"Mexico","dialling_code":"+52"},{"id":"MY","two_letter_abbreviation":"MY","three_letter_abbreviation":"MYS","full_name_locale":"Malaysia","full_name_english":"Malaysia","dialling_code":"+60"},{"id":"MZ","two_letter_abbreviation":"MZ","three_letter_abbreviation":"MOZ","full_name_locale":"Mozambique","full_name_english":"Mozambique","dialling_code":"+258"},{"id":"NA","two_letter_abbreviation":"NA","three_letter_abbreviation":"NAM","full_name_locale":"Namibia","full_name_english":"Namibia","dialling_code":"+264"},{"id":"NC","two_letter_abbreviation":"NC","three_letter_abbreviation":"NCL","full_name_locale":"New Caledonia","full_name_english":"New Caledonia","dialling_code":"+687"},{"id":"NE","two_letter_abbreviation":"NE","three_letter_abbreviation":"NER","full_name_locale":"Niger","full_name_english":"Niger","dialling_code":"+227"},{"id":"NF","two_letter_abbreviation":"NF","three_letter_abbreviation":"NFK","full_name_locale":"Norfolk Island","full_name_english":"Norfolk Island","dialling_code":"+672"},{"id":"NG","two_letter_abbreviation":"NG","three_letter_abbreviation":"NGA","full_name_locale":"Nigeria","full_name_english":"Nigeria","dialling_code":"+234"},{"id":"NI","two_letter_abbreviation":"NI","three_letter_abbreviation":"NIC","full_name_locale":"Nicaragua","full_name_english":"Nicaragua","dialling_code":"+505"},{"id":"NL","two_letter_abbreviation":"NL","three_letter_abbreviation":"NLD","full_name_locale":"Netherlands","full_name_english":"Netherlands","dialling_code":"+31"},{"id":"NO","two_letter_abbreviation":"NO","three_letter_abbreviation":"NOR","full_name_locale":"Norway","full_name_english":"Norway","dialling_code":"+47"},{"id":"NP","two_letter_abbreviation":"NP","three_letter_abbreviation":"NPL","full_name_locale":"Nepal","full_name_english":"Nepal","dialling_code":"+977"},{"id":"NR","two_letter_abbreviation":"NR","three_letter_abbreviation":"NRU","full_name_locale":"Nauru","full_name_english":"Nauru","dialling_code":"+674"},{"id":"NU","two_letter_abbreviation":"NU","three_letter_abbreviation":"NIU","full_name_locale":"Niue","full_name_english":"Niue","dialling_code":"+683"},{"id":"NZ","two_letter_abbreviation":"NZ","three_letter_abbreviation":"NZL","full_name_locale":"New Zealand","full_name_english":"New Zealand","dialling_code":"+64"},{"id":"OM","two_letter_abbreviation":"OM","three_letter_abbreviation":"OMN","full_name_locale":"Oman","full_name_english":"Oman","dialling_code":"+968"},{"id":"PA","two_letter_abbreviation":"PA","three_letter_abbreviation":"PAN","full_name_locale":"Panama","full_name_english":"Panama","dialling_code":"+507"},{"id":"PE","two_letter_abbreviation":"PE","three_letter_abbreviation":"PER","full_name_locale":"Peru","full_name_english":"Peru","dialling_code":"+51"},{"id":"PF","two_letter_abbreviation":"PF","three_letter_abbreviation":"PYF","full_name_locale":"French Polynesia","full_name_english":"French Polynesia","dialling_code":"+689"},{"id":"PG","two_letter_abbreviation":"PG","three_letter_abbreviation":"PNG","full_name_locale":"Papua New Guinea","full_name_english":"Papua New Guinea","dialling_code":"+675"},{"id":"PH","two_letter_abbreviation":"PH","three_letter_abbreviation":"PHL","full_name_locale":"Philippines","full_name_english":"Philippines","dialling_code":"+63"},{"id":"PK","two_letter_abbreviation":"PK","three_letter_abbreviation":"PAK","full_name_locale":"Pakistan","full_name_english":"Pakistan","dialling_code":"+92"},{"id":"PL","two_letter_abbreviation":"PL","three_letter_abbreviation":"POL","full_name_locale":"Poland","full_name_english":"Poland","dialling_code":"+48"},{"id":"PM","two_letter_abbreviation":"PM","three_letter_abbreviation":"SPM","full_name_locale":"St. Pierre & Miquelon","full_name_english":"St. Pierre & Miquelon","dialling_code":"+508"},{"id":"PS","two_letter_abbreviation":"PS","three_letter_abbreviation":"PSE","full_name_locale":"Palestinian Territories","full_name_english":"Palestinian Territories","dialling_code":"+970"},{"id":"PT","two_letter_abbreviation":"PT","three_letter_abbreviation":"PRT","full_name_locale":"Portugal","full_name_english":"Portugal","dialling_code":"+351"},{"id":"PW","two_letter_abbreviation":"PW","three_letter_abbreviation":"PLW","full_name_locale":"Palau","full_name_english":"Palau","dialling_code":"+680"},{"id":"PY","two_letter_abbreviation":"PY","three_letter_abbreviation":"PRY","full_name_locale":"Paraguay","full_name_english":"Paraguay","dialling_code":"+595"},{"id":"QA","two_letter_abbreviation":"QA","three_letter_abbreviation":"QAT","full_name_locale":"Qatar","full_name_english":"Qatar","dialling_code":"+974"},{"id":"RE","two_letter_abbreviation":"RE","three_letter_abbreviation":"REU","full_name_locale":"Réunion","full_name_english":"Réunion","dialling_code":"+262"},{"id":"RO","two_letter_abbreviation":"RO","three_letter_abbreviation":"ROU","full_name_locale":"Romania","full_name_english":"Romania","dialling_code":"+40","available_regions":[{"id":"278","code":"AB","name":"Alba"},{"id":"279","code":"AR","name":"Arad"},{"id":"280","code":"AG","name":"Argeş"},{"id":"281","code":"BC","name":"Bacău"},{"id":"282","code":"BH","name":"Bihor"},{"id":"283","code":"BN","name":"Bistriţa-Năsăud"},{"id":"284","code":"BT","name":"Botoşani"},{"id":"286","code":"BR","name":"Brăila"},{"id":"285","code":"BV","name":"Braşov"},{"id":"287","code":"B","name":"Bucureşti"},{"id":"288","code":"BZ","name":"Buzău"},{"id":"290","code":"CL","name":"Călăraşi"},{"id":"289","code":"CS","name":"Caraş-Severin"},{"id":"291","code":"CJ","name":"Cluj"},{"id":"292","code":"CT","name":"Constanţa"},{"id":"293","code":"CV","name":"Covasna"},{"id":"294","code":"DB","name":"Dâmboviţa"},{"id":"295","code":"DJ","name":"Dolj"},{"id":"296","code":"GL","name":"Galaţi"},{"id":"297","code":"GR","name":"Giurgiu"},{"id":"298","code":"GJ","name":"Gorj"},{"id":"299","code":"HR","name":"Harghita"},{"id":"300","code":"HD","name":"Hunedoara"},{"id":"301","code":"IL","name":"Ialomiţa"},{"id":"302","code":"IS","name":"Iaşi"},{"id":"303","code":"IF","name":"Ilfov"},{"id":"304","code":"MM","name":"Maramureş"},{"id":"305","code":"MH","name":"Mehedinţi"},{"id":"306","code":"MS","name":"Mureş"},{"id":"307","code":"NT","name":"Neamţ"},{"id":"308","code":"OT","name":"Olt"},{"id":"309","code":"PH","name":"Prahova"},{"id":"311","code":"SJ","name":"Sălaj"},{"id":"310","code":"SM","name":"Satu-Mare"},{"id":"312","code":"SB","name":"Sibiu"},{"id":"313","code":"SV","name":"Suceava"},{"id":"314","code":"TR","name":"Teleorman"},{"id":"315","code":"TM","name":"Timiş"},{"id":"316","code":"TL","name":"Tulcea"},{"id":"318","code":"VL","name":"Vâlcea"},{"id":"317","code":"VS","name":"Vaslui"},{"id":"319","code":"VN","name":"Vrancea"}]},{"id":"RS","two_letter_abbreviation":"RS","three_letter_abbreviation":"SRB","full_name_locale":"Serbia","full_name_english":"Serbia","dialling_code":"+381"},{"id":"RU","two_letter_abbreviation":"RU","three_letter_abbreviation":"RUS","full_name_locale":"Russia","full_name_english":"Russia","dialling_code":"+7"},{"id":"RW","two_letter_abbreviation":"RW","three_letter_abbreviation":"RWA","full_name_locale":"Rwanda","full_name_english":"Rwanda","dialling_code":"+250"},{"id":"SA","two_letter_abbreviation":"SA","three_letter_abbreviation":"SAU","full_name_locale":"Saudi Arabia","full_name_english":"Saudi Arabia","dialling_code":"+966"},{"id":"SB","two_letter_abbreviation":"SB","three_letter_abbreviation":"SLB","full_name_locale":"Solomon Islands","full_name_english":"Solomon Islands","dialling_code":"+677"},{"id":"SC","two_letter_abbreviation":"SC","three_letter_abbreviation":"SYC","full_name_locale":"Seychelles","full_name_english":"Seychelles","dialling_code":"+248"},{"id":"SD","two_letter_abbreviation":"SD","three_letter_abbreviation":"SDN","full_name_locale":"Sudan","full_name_english":"Sudan","dialling_code":"+249"},{"id":"SE","two_letter_abbreviation":"SE","three_letter_abbreviation":"SWE","full_name_locale":"Sweden","full_name_english":"Sweden","dialling_code":"+46"},{"id":"SG","two_letter_abbreviation":"SG","three_letter_abbreviation":"SGP","full_name_locale":"Singapore","full_name_english":"Singapore","dialling_code":"+65"},{"id":"SH","two_letter_abbreviation":"SH","three_letter_abbreviation":"SHN","full_name_locale":"St. Helena","full_name_english":"St. Helena","dialling_code":"+290"},{"id":"SI","two_letter_abbreviation":"SI","three_letter_abbreviation":"SVN","full_name_locale":"Slovenia","full_name_english":"Slovenia","dialling_code":"+386"},{"id":"SK","two_letter_abbreviation":"SK","three_letter_abbreviation":"SVK","full_name_locale":"Slovakia","full_name_english":"Slovakia","dialling_code":"+421"},{"id":"SL","two_letter_abbreviation":"SL","three_letter_abbreviation":"SLE","full_name_locale":"Sierra Leone","full_name_english":"Sierra Leone","dialling_code":"+232"},{"id":"SM","two_letter_abbreviation":"SM","three_letter_abbreviation":"SMR","full_name_locale":"San Marino","full_name_english":"San Marino","dialling_code":"+378"},{"id":"SN","two_letter_abbreviation":"SN","three_letter_abbreviation":"SEN","full_name_locale":"Senegal","full_name_english":"Senegal","dialling_code":"+221"},{"id":"SO","two_letter_abbreviation":"SO","three_letter_abbreviation":"SOM","full_name_locale":"Somalia","full_name_english":"Somalia","dialling_code":"+252"},{"id":"SR","two_letter_abbreviation":"SR","three_letter_abbreviation":"SUR","full_name_locale":"Suriname","full_name_english":"Suriname","dialling_code":"+597"},{"id":"ST","two_letter_abbreviation":"ST","three_letter_abbreviation":"STP","full_name_locale":"São Tomé & Príncipe","full_name_english":"São Tomé & Príncipe","dialling_code":"+239"},{"id":"SV","two_letter_abbreviation":"SV","three_letter_abbreviation":"SLV","full_name_locale":"El Salvador","full_name_english":"El Salvador","dialling_code":"+503"},{"id":"SY","two_letter_abbreviation":"SY","three_letter_abbreviation":"SYR","full_name_locale":"Syria","full_name_english":"Syria","dialling_code":"+963"},{"id":"SZ","two_letter_abbreviation":"SZ","three_letter_abbreviation":"SWZ","full_name_locale":"Swaziland","full_name_english":"Swaziland","dialling_code":"+268"},{"id":"TC","two_letter_abbreviation":"TC","three_letter_abbreviation":"TCA","full_name_locale":"Turks & Caicos Islands","full_name_english":"Turks & Caicos Islands","dialling_code":"+1"},{"id":"TD","two_letter_abbreviation":"TD","three_letter_abbreviation":"TCD","full_name_locale":"Chad","full_name_english":"Chad"},{"id":"TG","two_letter_abbreviation":"TG","three_letter_abbreviation":"TGO","full_name_locale":"Togo","full_name_english":"Togo","dialling_code":"+228"},{"id":"TH","two_letter_abbreviation":"TH","three_letter_abbreviation":"THA","full_name_locale":"Thailand","full_name_english":"Thailand","dialling_code":"+66"},{"id":"TJ","two_letter_abbreviation":"TJ","three_letter_abbreviation":"TJK","full_name_locale":"Tajikistan","full_name_english":"Tajikistan","dialling_code":"+992"},{"id":"TK","two_letter_abbreviation":"TK","three_letter_abbreviation":"TKL","full_name_locale":"Tokelau","full_name_english":"Tokelau","dialling_code":"+690"},{"id":"TL","two_letter_abbreviation":"TL","three_letter_abbreviation":"TLS","full_name_locale":"Timor-Leste","full_name_english":"Timor-Leste","dialling_code":"+670"},{"id":"TM","two_letter_abbreviation":"TM","three_letter_abbreviation":"TKM","full_name_locale":"Turkmenistan","full_name_english":"Turkmenistan","dialling_code":"+993"},{"id":"TN","two_letter_abbreviation":"TN","three_letter_abbreviation":"TUN","full_name_locale":"Tunisia","full_name_english":"Tunisia","dialling_code":"+216"},{"id":"TO","two_letter_abbreviation":"TO","three_letter_abbreviation":"TON","full_name_locale":"Tonga","full_name_english":"Tonga","dialling_code":"+676"},{"id":"TR","two_letter_abbreviation":"TR","three_letter_abbreviation":"TUR","full_name_locale":"Turkey","full_name_english":"Turkey","dialling_code":"+90"},{"id":"TT","two_letter_abbreviation":"TT","three_letter_abbreviation":"TTO","full_name_locale":"Trinidad & Tobago","full_name_english":"Trinidad & Tobago","dialling_code":"+1"},{"id":"TV","two_letter_abbreviation":"TV","three_letter_abbreviation":"TUV","full_name_locale":"Tuvalu","full_name_english":"Tuvalu","dialling_code":"+688"},{"id":"TW","two_letter_abbreviation":"TW","three_letter_abbreviation":"TWN","full_name_locale":"Taiwan","full_name_english":"Taiwan","dialling_code":"+886"},{"id":"TZ","two_letter_abbreviation":"TZ","three_letter_abbreviation":"TZA","full_name_locale":"Tanzania","full_name_english":"Tanzania","dialling_code":"+255"},{"id":"UA","two_letter_abbreviation":"UA","three_letter_abbreviation":"UKR","full_name_locale":"Ukraine","full_name_english":"Ukraine","dialling_code":"+380"},{"id":"UG","two_letter_abbreviation":"UG","three_letter_abbreviation":"UGA","full_name_locale":"Uganda","full_name_english":"Uganda","dialling_code":"+256"},{"id":"US","two_letter_abbreviation":"US","three_letter_abbreviation":"USA","full_name_locale":"United States","full_name_english":"United States","dialling_code":"+1","available_regions":[{"id":"1","code":"AL","name":"Alabama"},{"id":"2","code":"AK","name":"Alaska"},{"id":"3","code":"AS","name":"American Samoa"},{"id":"4","code":"AZ","name":"Arizona"},{"id":"5","code":"AR","name":"Arkansas"},{"id":"6","code":"AE","name":"Armed Forces Africa"},{"id":"7","code":"AA","name":"Armed Forces Americas"},{"id":"8","code":"AE","name":"Armed Forces Canada"},{"id":"9","code":"AE","name":"Armed Forces Europe"},{"id":"10","code":"AE","name":"Armed Forces Middle East"},{"id":"11","code":"AP","name":"Armed Forces Pacific"},{"id":"12","code":"CA","name":"California"},{"id":"13","code":"CO","name":"Colorado"},{"id":"14","code":"CT","name":"Connecticut"},{"id":"15","code":"DE","name":"Delaware"},{"id":"16","code":"DC","name":"District of Columbia"},{"id":"17","code":"FM","name":"Federated States Of Micronesia"},{"id":"18","code":"FL","name":"Florida"},{"id":"19","code":"GA","name":"Georgia"},{"id":"20","code":"GU","name":"Guam"},{"id":"21","code":"HI","name":"Hawaii"},{"id":"22","code":"ID","name":"Idaho"},{"id":"23","code":"IL","name":"Illinois"},{"id":"24","code":"IN","name":"Indiana"},{"id":"25","code":"IA","name":"Iowa"},{"id":"26","code":"KS","name":"Kansas"},{"id":"27","code":"KY","name":"Kentucky"},{"id":"28","code":"LA","name":"Louisiana"},{"id":"29","code":"ME","name":"Maine"},{"id":"30","code":"MH","name":"Marshall Islands"},{"id":"31","code":"MD","name":"Maryland"},{"id":"32","code":"MA","name":"Massachusetts"},{"id":"33","code":"MI","name":"Michigan"},{"id":"34","code":"MN","name":"Minnesota"},{"id":"35","code":"MS","name":"Mississippi"},{"id":"36","code":"MO","name":"Missouri"},{"id":"37","code":"MT","name":"Montana"},{"id":"38","code":"NE","name":"Nebraska"},{"id":"39","code":"NV","name":"Nevada"},{"id":"40","code":"NH","name":"New Hampshire"},{"id":"41","code":"NJ","name":"New Jersey"},{"id":"42","code":"NM","name":"New Mexico"},{"id":"43","code":"NY","name":"New York"},{"id":"44","code":"NC","name":"North Carolina"},{"id":"45","code":"ND","name":"North Dakota"},{"id":"46","code":"MP","name":"Northern Mariana Islands"},{"id":"47","code":"OH","name":"Ohio"},{"id":"48","code":"OK","name":"Oklahoma"},{"id":"49","code":"OR","name":"Oregon"},{"id":"50","code":"PW","name":"Palau"},{"id":"51","code":"PA","name":"Pennsylvania"},{"id":"52","code":"PR","name":"Puerto Rico"},{"id":"53","code":"RI","name":"Rhode Island"},{"id":"54","code":"SC","name":"South Carolina"},{"id":"55","code":"SD","name":"South Dakota"},{"id":"56","code":"TN","name":"Tennessee"},{"id":"57","code":"TX","name":"Texas"},{"id":"58","code":"UT","name":"Utah"},{"id":"59","code":"VT","name":"Vermont"},{"id":"60","code":"VI","name":"Virgin Islands"},{"id":"61","code":"VA","name":"Virginia"},{"id":"62","code":"WA","name":"Washington"},{"id":"63","code":"WV","name":"West Virginia"},{"id":"64","code":"WI","name":"Wisconsin"},{"id":"65","code":"WY","name":"Wyoming"}]},{"id":"UY","two_letter_abbreviation":"UY","three_letter_abbreviation":"URY","full_name_locale":"Uruguay","full_name_english":"Uruguay","dialling_code":"+598"},{"id":"UZ","two_letter_abbreviation":"UZ","three_letter_abbreviation":"UZB","full_name_locale":"Uzbekistan","full_name_english":"Uzbekistan","dialling_code":"+998"},{"id":"VA","two_letter_abbreviation":"VA","three_letter_abbreviation":"VAT","full_name_locale":"Vatican City","full_name_english":"Vatican City","dialling_code":"+39"},{"id":"VC","two_letter_abbreviation":"VC","three_letter_abbreviation":"VCT","full_name_locale":"St. Vincent & Grenadines","full_name_english":"St. Vincent & Grenadines","dialling_code":"+1"},{"id":"VE","two_letter_abbreviation":"VE","three_letter_abbreviation":"VEN","full_name_locale":"Venezuela","full_name_english":"Venezuela","dialling_code":"+58"},{"id":"VG","two_letter_abbreviation":"VG","three_letter_abbreviation":"VGB","full_name_locale":"British Virgin Islands","full_name_english":"British Virgin Islands","dialling_code":"+1"},{"id":"VI","two_letter_abbreviation":"VI","three_letter_abbreviation":"VIR","full_name_locale":"U.S. Virgin Islands","full_name_english":"U.S. Virgin Islands","dialling_code":"+1"},{"id":"VN","two_letter_abbreviation":"VN","three_letter_abbreviation":"VNM","full_name_locale":"Vietnam","full_name_english":"Vietnam","dialling_code":"+84"},{"id":"VU","two_letter_abbreviation":"VU","three_letter_abbreviation":"VUT","full_name_locale":"Vanuatu","full_name_english":"Vanuatu","dialling_code":"+678"},{"id":"WF","two_letter_abbreviation":"WF","three_letter_abbreviation":"WLF","full_name_locale":"Wallis & Futuna","full_name_english":"Wallis & Futuna","dialling_code":"+681"},{"id":"WS","two_letter_abbreviation":"WS","three_letter_abbreviation":"WSM","full_name_locale":"Samoa","full_name_english":"Samoa","dialling_code":"+685"},{"id":"YE","two_letter_abbreviation":"YE","three_letter_abbreviation":"YEM","full_name_locale":"Yemen","full_name_english":"Yemen","dialling_code":"+967"},{"id":"YT","two_letter_abbreviation":"YT","three_letter_abbreviation":"MYT","full_name_locale":"Mayotte","full_name_english":"Mayotte","dialling_code":"+262"},{"id":"ZA","two_letter_abbreviation":"ZA","three_letter_abbreviation":"ZAF","full_name_locale":"South Africa","full_name_english":"South Africa","dialling_code":"+27"},{"id":"ZM","two_letter_abbreviation":"ZM","three_letter_abbreviation":"ZMB","full_name_locale":"Zambia","full_name_english":"Zambia","dialling_code":"+260"},{"id":"ZW","two_letter_abbreviation":"ZW","three_letter_abbreviation":"ZWE","full_name_locale":"Zimbabwe","full_name_english":"Zimbabwe","dialling_code":"+263"}]
